*******************************************************************************
 Revised: April 12, 2021        Mars Barycenter                               4
 
 Dynamical point:
 ---------------
 The common center of mass about which the Martian system (planet and
 satellites Phobos and Deimos) revolve.
*******************************************************************************
 
 
*******************************************************************************
Ephemeris / WWW_USER Thu May 13 10:04:29 2021 Pasadena, USA      / Horizons
*******************************************************************************
Target body name: Mars Barycenter (4)             {source: DE441}
Center body name: Solar System Barycenter (0)     {source: DE441}
Center-site name: BODY CENTER
*******************************************************************************
Start time      : A.D. 2020-Aug-03 00:00:00.0000 TDB
Stop  time      : A.D. 2021-May-30 00:00:00.0000 TDB
Step-size       : 1440 minutes
*******************************************************************************
Center geodetic : 0.00000000,0.00000000,0.0000000 {E-lon(deg),Lat(deg),Alt(km)}
Center cylindric: 0.00000000,0.00000000,0.0000000 {E-lon(deg),Dxy(km),Dz(km)}
Center radii    : (undefined)                                                  
Output units    : KM-S
Output type     : GEOMETRIC cartesian states
Output format   : 1x (position w/uncertainties: XYZ)
Reference frame : Ecliptic of J2000.0
*******************************************************************************
            JDTDB,            Calendar Date (TDB),                      X,                      Y,                      Z,             X_s,             Y_s,             Z_s,
*****************************************************************************************************************************************************************************
$$SOE
2459064.500000000, A.D. 2020-Aug-03 00:00:00.0000,  1.876735010558490E+08, -8.342774947311181E+07, -6.382874087824527E+06,            n.a.,            n.a.,            n.a.,
2459065.500000000, A.D. 2020-Aug-04 00:00:00.0000,  1.885975158995393E+08, -8.133426692459641E+07, -6.361654033625599E+06,            n.a.,            n.a.,            n.a.,
2459066.500000000, A.D. 2020-Aug-05 00:00:00.0000,  1.895002658800453E+08, -7.923154275101826E+07, -6.339718579459306E+06,            n.a.,            n.a.,            n.a.,
2459067.500000000, A.D. 2020-Aug-06 00:00:00.0000,  1.903816502764790E+08, -7.711981338424784E+07, -6.317070208854705E+06,            n.a.,            n.a.,            n.a.,
2459068.500000000, A.D. 2020-Aug-07 00:00:00.0000,  1.912415714483414E+08, -7.499931652644065E+07, -6.293711507507645E+06,            n.a.,            n.a.,            n.a.,
2459069.500000000, A.D. 2020-Aug-08 00:00:00.0000,  1.920799348549288E+08, -7.287029110062128E+07, -6.269645162722506E+06,            n.a.,            n.a.,            n.a.,
2459070.500000000, A.D. 2020-Aug-09 00:00:00.0000,  1.928966490737429E+08, -7.073297720090133E+07, -6.244873962821770E+06,            n.a.,            n.a.,            n.a.,
2459071.500000000, A.D. 2020-Aug-10 00:00:00.0000,  1.936916258178998E+08, -6.858761604235503E+07, -6.219400796523951E+06,            n.a.,            n.a.,            n.a.,
2459072.500000000, A.D. 2020-Aug-11 00:00:00.0000,  1.944647799525264E+08, -6.643444991057821E+07, -6.193228652290016E+06,            n.a.,            n.a.,            n.a.,
2459073.500000000, A.D. 2020-Aug-12 00:00:00.0000,  1.952160295101404E+08, -6.427372211095517E+07, -6.166360617638793E+06,            n.a.,            n.a.,            n.a.,
2459074.500000000, A.D. 2020-Aug-13 00:00:00.0000,  1.959452957050061E+08, -6.210567691765890E+07, -6.138799878431600E+06,            n.a.,            n.a.,            n.a.,
2459075.500000000, A.D. 2020-Aug-14 00:00:00.0000,  1.966525029464607E+08, -5.993055952240986E+07, -6.110549718126606E+06,            n.a.,            n.a.,            n.a.,
2459076.500000000, A.D. 2020-Aug-15 00:00:00.0000,  1.973375788512074E+08, -5.774861598301895E+07, -6.081613517003261E+06,            n.a.,            n.a.,            n.a.,
2459077.500000000, A.D. 2020-Aug-16 00:00:00.0000,  1.980004542545697E+08, -5.556009317173976E+07, -6.051994751357250E+06,            n.a.,            n.a.,            n.a.,
2459078.500000000, A.D. 2020-Aug-17 00:00:00.0000,  1.986410632207048E+08, -5.336523872345626E+07, -6.021696992666427E+06,            n.a.,            n.a.,            n.a.,
2459079.500000000, A.D. 2020-Aug-18 00:00:00.0000,  1.992593430517736E+08, -5.116430098373099E+07, -5.990723906728234E+06,            n.a.,            n.a.,            n.a.,
2459080.500000000, A.D. 2020-Aug-19 00:00:00.0000,  1.998552342960650E+08, -4.895752895673974E+07, -5.959079252769023E+06,            n.a.,            n.a.,            n.a.,
2459081.500000000, A.D. 2020-Aug-20 00:00:00.0000,  2.004286807550734E+08, -4.674517225311811E+07, -5.926766882525899E+06,            n.a.,            n.a.,            n.a.,
2459082.500000000, A.D. 2020-Aug-21 00:00:00.0000,  2.009796294895306E+08, -4.452748103774559E+07, -5.893790739301516E+06,            n.a.,            n.a.,            n.a.,
2459083.500000000, A.D. 2020-Aug-22 00:00:00.0000,  2.015080308243901E+08, -4.230470597749268E+07, -5.860154856992474E+06,            n.a.,            n.a.,            n.a.,
2459084.500000000, A.D. 2020-Aug-23 00:00:00.0000,  2.020138383527675E+08, -4.007709818895645E+07, -5.825863359091813E+06,            n.a.,            n.a.,            n.a.,
2459085.500000000, A.D. 2020-Aug-24 00:00:00.0000,  2.024970089388377E+08, -3.784490918620989E+07, -5.790920457666228E+06,            n.a.,            n.a.,            n.a.,
2459086.500000000, A.D. 2020-Aug-25 00:00:00.0000,  2.029575027196909E+08, -3.560839082859026E+07, -5.755330452308558E+06,            n.a.,            n.a.,            n.a.,
2459087.500000000, A.D. 2020-Aug-26 00:00:00.0000,  2.033952831061528E+08, -3.336779526855140E+07, -5.719097729066262E+06,            n.a.,            n.a.,            n.a.,
2459088.500000000, A.D. 2020-Aug-27 00:00:00.0000,  2.038103167825716E+08, -3.112337489960507E+07, -5.682226759346381E+06,            n.a.,            n.a.,            n.a.,
2459089.500000000, A.D. 2020-Aug-28 00:00:00.0000,  2.042025737055763E+08, -2.887538230437556E+07, -5.644722098797761E+06,            n.a.,            n.a.,            n.a.,
2459090.500000000, A.D. 2020-Aug-29 00:00:00.0000,  2.045720271018131E+08, -2.662407020279251E+07, -5.606588386171026E+06,            n.a.,            n.a.,            n.a.,
2459091.500000000, A.D. 2020-Aug-30 00:00:00.0000,  2.049186534646659E+08, -2.436969140044584E+07, -5.567830342157204E+06,            n.a.,            n.a.,            n.a.,
2459092.500000000, A.D. 2020-Aug-31 00:00:00.0000,  2.052424325499673E+08, -2.211249873712681E+07, -5.528452768205460E+06,            n.a.,            n.a.,            n.a.,
2459093.500000000, A.D. 2020-Sep-01 00:00:00.0000,  2.055433473707073E+08, -1.985274503557915E+07, -5.488460545320750E+06,            n.a.,            n.a.,            n.a.,
2459094.500000000, A.D. 2020-Sep-02 00:00:00.0000,  2.058213841907484E+08, -1.759068305048328E+07, -5.447858632842029E+06,            n.a.,            n.a.,            n.a.,
2459095.500000000, A.D. 2020-Sep-03 00:00:00.0000,  2.060765325175570E+08, -1.532656541769700E+07, -5.406652067201780E+06,            n.a.,            n.a.,            n.a.,
2459096.500000000, A.D. 2020-Sep-04 00:00:00.0000,  2.063087850939586E+08, -1.306064460377511E+07, -5.364845960667503E+06,            n.a.,            n.a.,            n.a.,
2459097.500000000, A.D. 2020-Sep-05 00:00:00.0000,  2.065181378889282E+08, -1.079317285579061E+07, -5.322445500066006E+06,            n.a.,            n.a.,            n.a.,
2459098.500000000, A.D. 2020-Sep-06 00:00:00.0000,  2.067045900874265E+08, -8.524402151479343E+06, -5.279455945491066E+06,            n.a.,            n.a.,            n.a.,
2459099.500000000, A.D. 2020-Sep-07 00:00:00.0000,  2.068681440792927E+08, -6.254584149729889E+06, -5.235882628995312E+06,            n.a.,            n.a.,            n.a.,
2459100.500000000, A.D. 2020-Sep-08 00:00:00.0000,  2.070088054472059E+08, -3.983970141439748E+06, -5.191730953267003E+06,            n.a.,            n.a.,            n.a.,
2459101.500000000, A.D. 2020-Sep-09 00:00:00.0000,  2.071265829537278E+08, -1.712811000758752E+06, -5.147006390292465E+06,            n.a.,            n.a.,            n.a.,
2459102.500000000, A.D. 2020-Sep-10 00:00:00.0000,  2.072214885274391E+08,  5.586428632599625E+05, -5.101714480004908E+06,            n.a.,            n.a.,            n.a.,
2459103.500000000, A.D. 2020-Sep-11 00:00:00.0000,  2.072935372481833E+08,  2.830141554581514E+06, -5.055860828920382E+06,            n.a.,            n.a.,            n.a.,
2459104.500000000, A.D. 2020-Sep-12 00:00:00.0000,  2.073427473314320E+08,  5.101435737663880E+06, -5.009451108761618E+06,            n.a.,            n.a.,            n.a.,
2459105.500000000, A.D. 2020-Sep-13 00:00:00.0000,  2.073691401117861E+08,  7.372276684466570E+06, -4.962491055070478E+06,            n.a.,            n.a.,            n.a.,
2459106.500000000, A.D. 2020-Sep-14 00:00:00.0000,  2.073727400256268E+08,  9.642416320974853E+06, -4.914986465809775E+06,            n.a.,            n.a.,            n.a.,
2459107.500000000, A.D. 2020-Sep-15 00:00:00.0000,  2.073535745929334E+08,  1.191160727322153E+07, -4.866943199955189E+06,            n.a.,            n.a.,            n.a.,
2459108.500000000, A.D. 2020-Sep-16 00:00:00.0000,  2.073116743982820E+08,  1.417960291278874E+07, -4.818367176078035E+06,            n.a.,            n.a.,            n.a.,
